ORBCOMM FM103           
1 40091U 14040F   25009.13004283  .00001254  00000+0  30909-3 0  9995
2 40091  47.0063  48.7170 0002975 275.8462  84.2084 14.57672461557950
ORBCOMM FM114           
1 41179U 15081A   25008.54054602  .00001470  00000+0  35540-3 0  9999
2 41179  47.0029 320.6512 0002636 331.0373  29.0366 14.57738075481176
ORBCOMM FM119           
1 41180U 15081B   25008.86282300  .00001231  00000+0  30403-3 0  9992
2 41180  46.9990 228.3797 0000736  41.1571 318.9369 14.57646982482472
ORBCOMM FM105           
1 41181U 15081C   25008.85591952  .00000530  00000+0  19546-3 0  9994
2 41181  46.9998 218.0022 0001820 313.2696  46.8032 14.44959793477701
ORBCOMM FM110           
1 41182U 15081D   25008.92727270  .00001982  00000+0  46585-3 0  9992
2 41182  47.0021 318.1951 0000868 126.1103 233.9863 14.57788238481107
ORBCOMM FM118           
1 41183U 15081E   25008.56562447  .00002025  00000+0  47583-3 0  9994
2 41183  47.0046 320.2991 0001320 119.8759 240.2258 14.57712123481157
ORBCOMM FM112           
1 41184U 15081F   25008.90769867  .00001264  00000+0  31101-3 0  9991
2 41184  46.9975 227.3394 0000893   6.2703 353.8194 14.57698594482429
ORBCOMM FM113           
1 41185U 15081G   25008.88509851  .00001292  00000+0  31691-3 0  9999
2 41185  46.9984 227.7531 0000668  50.6533 309.4411 14.57702375482401
